CCSDS_OMM_VERS = 2.0
CREATION_DATE  = 
ORIGINATOR     = 

OBJECT_NAME    = CYGNUS NG-23
OBJECT_ID      = 2025-208A
CENTER_NAME    = EARTH
REF_FRAME      = TEME
TIME_SYSTEM    = UTC
MEAN_ELEMENT_THEORY = SGP/SGP4

EPOCH          = 2026-01-14T21:15:56.381472
MEAN_MOTION    = 15.49293899
ECCENTRICITY   = .00077611
INCLINATION    = 51.6333
RA_OF_ASC_NODE = 338.3791
ARG_OF_PERICENTER = 18.9639
MEAN_ANOMALY   = 341.1637

EPHEMERIS_TYPE = 0
CLASSIFICATION_TYPE = U
NORAD_CAT_ID   = 65616
ELEMENT_SET_NO = 999
REV_AT_EPOCH   = 22
BSTAR          = .12902445E-3
MEAN_MOTION_DOT = .674E-4
MEAN_MOTION_DDOT = 0

CCSDS_OMM_VERS = 2.0
CREATION_DATE  = 
ORIGINATOR     = 

OBJECT_NAME    = DRAGONFLY
OBJECT_ID      = 1998-067XH
CENTER_NAME    = EARTH
REF_FRAME      = TEME
TIME_SYSTEM    = UTC
MEAN_ELEMENT_THEORY = SGP/SGP4

EPOCH          = 2026-01-14T13:57:52.165728
MEAN_MOTION    = 15.89069944
ECCENTRICITY   = .0007943
INCLINATION    = 51.6203
RA_OF_ASC_NODE = 325.7670
ARG_OF_PERICENTER = 109.7073
MEAN_ANOMALY   = 250.4790

EPHEMERIS_TYPE = 0
CLASSIFICATION_TYPE = U
NORAD_CAT_ID   = 65729
ELEMENT_SET_NO = 999
REV_AT_EPOCH   = 1835
BSTAR          = .99138E-3
MEAN_MOTION_DOT = .300685E-2
MEAN_MOTION_DDOT = 0

CCSDS_OMM_VERS = 2.0
CREATION_DATE  = 
ORIGINATOR     = 

OBJECT_NAME    = 1998-067XK
OBJECT_ID      = 1998-067XK
CENTER_NAME    = EARTH
REF_FRAME      = TEME
TIME_SYSTEM    = UTC
MEAN_ELEMENT_THEORY = SGP/SGP4

EPOCH          = 2026-01-14T06:32:38.688864
MEAN_MOTION    = 15.73668329
ECCENTRICITY   = .00048309
INCLINATION    = 51.6282
RA_OF_ASC_NODE = 331.2726
ARG_OF_PERICENTER = 79.0136
MEAN_ANOMALY   = 281.1406

EPHEMERIS_TYPE = 0
CLASSIFICATION_TYPE = U
NORAD_CAT_ID   = 65731
ELEMENT_SET_NO = 999
REV_AT_EPOCH   = 1825
BSTAR          = .71072875E-3
MEAN_MOTION_DOT = .102625E-2
MEAN_MOTION_DDOT = 0

CCSDS_OMM_VERS = 2.0
CREATION_DATE  = 
ORIGINATOR     = 

OBJECT_NAME    = RSP-03
OBJECT_ID      = 1998-067XL
CENTER_NAME    = EARTH
REF_FRAME      = TEME
TIME_SYSTEM    = UTC
MEAN_ELEMENT_THEORY = SGP/SGP4

EPOCH          = 2026-01-14T22:45:39.212064
MEAN_MOTION    = 15.80144693
ECCENTRICITY   = .00058531
INCLINATION    = 51.6253
RA_OF_ASC_NODE = 326.0047
ARG_OF_PERICENTER = 93.0090
MEAN_ANOMALY   = 267.1581

EPHEMERIS_TYPE = 0
CLASSIFICATION_TYPE = U
NORAD_CAT_ID   = 65732
ELEMENT_SET_NO = 999
REV_AT_EPOCH   = 1839
BSTAR          = .80882643E-3
MEAN_MOTION_DOT = .156955E-2
MEAN_MOTION_DDOT = 0

CCSDS_OMM_VERS = 2.0
CREATION_DATE  = 
ORIGINATOR     = 

OBJECT_NAME    = GHS-01
OBJECT_ID      = 1998-067XM
CENTER_NAME    = EARTH
REF_FRAME      = TEME
TIME_SYSTEM    = UTC
MEAN_ELEMENT_THEORY = SGP/SGP4

EPOCH          = 2026-01-14T05:22:54.240960
MEAN_MOTION    = 16.01928812
ECCENTRICITY   = .00078441
INCLINATION    = 51.6220
RA_OF_ASC_NODE = 325.6179
ARG_OF_PERICENTER = 124.1093
MEAN_ANOMALY   = 236.0662

EPHEMERIS_TYPE = 0
CLASSIFICATION_TYPE = U
NORAD_CAT_ID   = 65733
ELEMENT_SET_NO = 999
REV_AT_EPOCH   = 1833
BSTAR          = .13028289E-2
MEAN_MOTION_DOT = .764699E-2
MEAN_MOTION_DDOT = .28838864E-3

CCSDS_OMM_VERS = 2.0
CREATION_DATE  = 
ORIGINATOR     = 

OBJECT_NAME    = YOTSUBA-KULOVER
OBJECT_ID      = 1998-067XN
CENTER_NAME    = EARTH
REF_FRAME      = TEME
TIME_SYSTEM    = UTC
MEAN_ELEMENT_THEORY = SGP/SGP4

EPOCH          = 2026-01-14T23:32:17.177568
MEAN_MOTION    = 15.64859349
ECCENTRICITY   = .00041156
INCLINATION    = 51.6288
RA_OF_ASC_NODE = 332.2638
ARG_OF_PERICENTER = 105.1676
MEAN_ANOMALY   = 254.9774

EPHEMERIS_TYPE = 0
CLASSIFICATION_TYPE = U
NORAD_CAT_ID   = 65941
ELEMENT_SET_NO = 999
REV_AT_EPOCH   = 1505
BSTAR          = .55999589E-3
MEAN_MOTION_DOT = .55638E-3
MEAN_MOTION_DDOT = 0

CCSDS_OMM_VERS = 2.0
CREATION_DATE  = 
ORIGINATOR     = 

OBJECT_NAME    = BOTAN
OBJECT_ID      = 1998-067XP
CENTER_NAME    = EARTH
REF_FRAME      = TEME
TIME_SYSTEM    = UTC
MEAN_ELEMENT_THEORY = SGP/SGP4

EPOCH          = 2026-01-14T22:40:00.890400
MEAN_MOTION    = 15.71768883
ECCENTRICITY   = .00048295
INCLINATION    = 51.6265
RA_OF_ASC_NODE = 330.5094
ARG_OF_PERICENTER = 104.2748
MEAN_ANOMALY   = 255.8787

EPHEMERIS_TYPE = 0
CLASSIFICATION_TYPE = U
NORAD_CAT_ID   = 65942
ELEMENT_SET_NO = 999
REV_AT_EPOCH   = 1507
BSTAR          = .79358937E-3
MEAN_MOTION_DOT = .105753E-2
MEAN_MOTION_DDOT = 0

CCSDS_OMM_VERS = 2.0
CREATION_DATE  = 
ORIGINATOR     = 

OBJECT_NAME    = E-KAGAKU-1
OBJECT_ID      = 1998-067XQ
CENTER_NAME    = EARTH
REF_FRAME      = TEME
TIME_SYSTEM    = UTC
MEAN_ELEMENT_THEORY = SGP/SGP4

EPOCH          = 2026-01-14T06:40:34.098816
MEAN_MOTION    = 15.64767844
ECCENTRICITY   = .00026838
INCLINATION    = 51.6306
RA_OF_ASC_NODE = 335.8283
ARG_OF_PERICENTER = 102.0285
MEAN_ANOMALY   = 258.1011

EPHEMERIS_TYPE = 0
CLASSIFICATION_TYPE = U
NORAD_CAT_ID   = 65943
ELEMENT_SET_NO = 999
REV_AT_EPOCH   = 1494
BSTAR          = .60563019E-3
MEAN_MOTION_DOT = .60017E-3
MEAN_MOTION_DDOT = 0

CCSDS_OMM_VERS = 2.0
CREATION_DATE  = 
ORIGINATOR     = 

OBJECT_NAME    = HRC MONOBLOCK CAMERA
OBJECT_ID      = 1998-067XR
CENTER_NAME    = EARTH
REF_FRAME      = TEME
TIME_SYSTEM    = UTC
MEAN_ELEMENT_THEORY = SGP/SGP4

EPOCH          = 2026-01-14T06:58:42.044160
MEAN_MOTION    = 15.56630202
ECCENTRICITY   = .00011278
INCLINATION    = 51.6307
RA_OF_ASC_NODE = 338.9068
ARG_OF_PERICENTER = 0.6803
MEAN_ANOMALY   = 359.4190

EPHEMERIS_TYPE = 0
CLASSIFICATION_TYPE = U
NORAD_CAT_ID   = 66052
ELEMENT_SET_NO = 999
REV_AT_EPOCH   = 1390
BSTAR          = .37016407E-3
MEAN_MOTION_DOT = .26465E-3
MEAN_MOTION_DDOT = 0

CCSDS_OMM_VERS = 2.0
CREATION_DATE  = 
ORIGINATOR     = 

OBJECT_NAME    = HTV-X1
OBJECT_ID      = 2025-241A
CENTER_NAME    = EARTH
REF_FRAME      = TEME
TIME_SYSTEM    = UTC
MEAN_ELEMENT_THEORY = SGP/SGP4

EPOCH          = 2026-01-14T21:15:56.381472
MEAN_MOTION    = 15.49293899
ECCENTRICITY   = .00077611
INCLINATION    = 51.6333
RA_OF_ASC_NODE = 338.3791
ARG_OF_PERICENTER = 18.9639
MEAN_ANOMALY   = 341.1637

EPHEMERIS_TYPE = 0
CLASSIFICATION_TYPE = U
NORAD_CAT_ID   = 66174
ELEMENT_SET_NO = 999
REV_AT_EPOCH   = 51
BSTAR          = .12902445E-3
MEAN_MOTION_DOT = .674E-4
MEAN_MOTION_DDOT = 0

CCSDS_OMM_VERS = 2.0
CREATION_DATE  = 
ORIGINATOR     = 

OBJECT_NAME    = SZ-21 MODULE
OBJECT_ID      = 2025-246C
CENTER_NAME    = EARTH
REF_FRAME      = TEME
TIME_SYSTEM    = UTC
MEAN_ELEMENT_THEORY = SGP/SGP4

EPOCH          = 2026-01-14T12:00:12.087360
MEAN_MOTION    = 15.64482120
ECCENTRICITY   = .00020031
INCLINATION    = 41.4740
RA_OF_ASC_NODE = 175.9087
ARG_OF_PERICENTER = 169.7088
MEAN_ANOMALY   = 190.3794

EPHEMERIS_TYPE = 0
CLASSIFICATION_TYPE = U
NORAD_CAT_ID   = 66515
ELEMENT_SET_NO = 999
REV_AT_EPOCH   = 957
BSTAR          = .22760418E-3
MEAN_MOTION_DOT = .22256E-3
MEAN_MOTION_DDOT = 0

CCSDS_OMM_VERS = 2.0
CREATION_DATE  = 
ORIGINATOR     = 

OBJECT_NAME    = SHENZHOU-22
OBJECT_ID      = 2025-272A
CENTER_NAME    = EARTH
REF_FRAME      = TEME
TIME_SYSTEM    = UTC
MEAN_ELEMENT_THEORY = SGP/SGP4

EPOCH          = 2026-01-14T19:34:06.196800
MEAN_MOTION    = 15.60511354
ECCENTRICITY   = .00114061
INCLINATION    = 41.4652
RA_OF_ASC_NODE = 175.6948
ARG_OF_PERICENTER = 285.7845
MEAN_ANOMALY   = 74.1736

EPHEMERIS_TYPE = 0
CLASSIFICATION_TYPE = U
NORAD_CAT_ID   = 66645
ELEMENT_SET_NO = 999
REV_AT_EPOCH   = 26764
BSTAR          = .1413228E-3
MEAN_MOTION_DOT = .11697E-3
MEAN_MOTION_DDOT = 0

